{
  "links" : {
    "next" : "https://api.nasa.gov/neo/rest/v1/feed?start_date=2015-12-16&end_date=2015-12-16&detailed=true&api_key=t0TVs3DtDT2H8Oy2Zy8m2eVrNsAVKAexjcZXUckd",
    "prev" : "https://api.nasa.gov/neo/rest/v1/feed?start_date=2015-12-14&end_date=2015-12-14&detailed=true&api_key=t0TVs3DtDT2H8Oy2Zy8m2eVrNsAVKAexjcZXUckd",
    "self" : "https://api.nasa.gov/neo/rest/v1/feed?start_date=2015-12-15&end_date=2015-12-15&detailed=true&api_key=t0TVs3DtDT2H8Oy2Zy8m2eVrNsAVKAexjcZXUckd"
  },
  "element_count" : 7,
  "near_earth_objects" : {
    "2015-12-15" : [ {
      "links" : {
        "self" : "https://api.nasa.gov/neo/rest/v1/neo/3174202?api_key=t0TVs3DtDT2H8Oy2Zy8m2eVrNsAVKAexjcZXUckd"
      },
      "neo_reference_id" : "3174202",
      "name" : "(2004 BE86)",
      "nasa_jpl_url" : "http://ssd.jpl.nasa.gov/sbdb.cgi?sstr=3174202",
      "absolute_magnitude_h" : 20.9,
      "estimated_diameter" : {
        "kilometers" : {
          "estimated_diameter_min" : 0.1756123185,
          "estimated_diameter_max" : 0.3926810818
        },
        "meters" : {
          "estimated_diameter_min" : 175.6123184804,
          "estimated_diameter_max" : 392.6810818086
        },
        "miles" : {
          "estimated_diameter_min" : 0.1091204019,
          "estimated_diameter_max" : 0.2440006365
        },
        "feet" : {
          "estimated_diameter_min" : 576.1559189633,
          "estimated_diameter_max" : 1288.3238004408
        }
      },
      "is_potentially_hazardous_asteroid" : false,
      "close_approach_data" : [ {
        "close_approach_date" : "2015-12-15",
        "epoch_date_close_approach" : 1450166400000,
        "relative_velocity" : {
          "kilometers_per_second" : "5.1229752055",
          "kilometers_per_hour" : "18442.7107396734",
          "miles_per_hour" : "11459.5832371043"
        },
        "miss_distance" : {
          "astronomical" : "0.4399219912",
          "lunar" : "171.1296539307",
          "kilometers" : "65811396",
          "miles" : "40893304"
        },
        "orbiting_body" : "Earth"
      } ],
      "orbital_data" : {
        "orbit_id" : "49",
        "orbit_determination_date" : "2017-04-06 09:13:13",
        "orbit_uncertainty" : "0",
        "minimum_orbit_intersection" : ".10853",
        "jupiter_tisserand_invariant" : "4.632",
        "epoch_osculation" : "2458000.5",
        "eccentricity" : ".237310804989201",
        "semi_major_axis" : "1.440652078427149",
        "inclination" : "3.782070828957671",
        "ascending_node_longitude" : "154.7691286283936",
        "orbital_period" : "631.5926858972379",
        "perihelion_distance" : "1.098769773986237",
        "perihelion_argument" : "14.7497482197631",
        "aphelion_distance" : "1.782534382868061",
        "perihelion_time" : "2458121.755749251502",
        "mean_anomaly" : "290.8857263466741",
        "mean_motion" : ".5699876012474487",
        "equinox" : "J2000"
      }
    }, {
      "links" : {
        "self" : "https://api.nasa.gov/neo/rest/v1/neo/3582516?api_key=t0TVs3DtDT2H8Oy2Zy8m2eVrNsAVKAexjcZXUckd"
      },
      "neo_reference_id" : "3582516",
      "name" : "(2011 UV63)",
      "nasa_jpl_url" : "http://ssd.jpl.nasa.gov/sbdb.cgi?sstr=3582516",
      "absolute_magnitude_h" : 21.7,
      "estimated_diameter" : {
        "kilometers" : {
          "estimated_diameter_min" : 0.1214940408,
          "estimated_diameter_max" : 0.2716689341
        },
        "meters" : {
          "estimated_diameter_min" : 121.4940407996,
          "estimated_diameter_max" : 271.6689340891
        },
        "miles" : {
          "estimated_diameter_min" : 0.0754928736,
          "estimated_diameter_max" : 0.1688071972
        },
        "feet" : {
          "estimated_diameter_min" : 398.6025088171,
          "estimated_diameter_max" : 891.3023057169
        }
      },
      "is_potentially_hazardous_asteroid" : true,
      "close_approach_data" : [ {
        "close_approach_date" : "2015-12-15",
        "epoch_date_close_approach" : 1450166400000,
        "relative_velocity" : {
          "kilometers_per_second" : "5.1933526241",
          "kilometers_per_hour" : "18696.0694466696",
          "miles_per_hour" : "11617.0104847931"
        },
        "miss_distance" : {
          "astronomical" : "0.3332029147",
          "lunar" : "129.6159362793",
          "kilometers" : "49846448",
          "miles" : "30973148"
        },
        "orbiting_body" : "Earth"
      } ],
      "orbital_data" : {
        "orbit_id" : "22",
        "orbit_determination_date" : "2017-04-06 08:52:20",
        "orbit_uncertainty" : "1",
        "minimum_orbit_intersection" : ".0354341",
        "jupiter_tisserand_invariant" : "5.296",
        "epoch_osculation" : "2458000.5",
        "eccentricity" : ".1342413722378202",
        "semi_major_axis" : "1.193166652001986",
        "inclination" : "9.786673703121918",
        "ascending_node_longitude" : "13.7170421670205",
        "orbital_period" : "476.0472787403519",
        "perihelion_distance" : "1.032994323328834",
        "perihelion_argument" : "189.7728841550539",
        "aphelion_distance" : "1.353338980675138",
        "perihelion_time" : "2457992.423983408800",
        "mean_anomaly" : "6.107305099033488",
        "mean_motion" : ".7562274086569308",
        "equinox" : "J2000"
      }
    }, {
      "links" : {
        "self" : "https://api.nasa.gov/neo/rest/v1/neo/3735995?api_key=t0TVs3DtDT2H8Oy2Zy8m2eVrNsAVKAexjcZXUckd"
      },
      "neo_reference_id" : "3735995",
      "name" : "(2015 XN55)",
      "nasa_jpl_url" : "http://ssd.jpl.nasa.gov/sbdb.cgi?sstr=3735995",
      "absolute_magnitude_h" : 27.2,
      "estimated_diameter" : {
        "kilometers" : {
          "estimated_diameter_min" : 0.0096506147,
          "estimated_diameter_max" : 0.0215794305
        },
        "meters" : {
          "estimated_diameter_min" : 9.6506146958,
          "estimated_diameter_max" : 21.5794304844
        },
        "miles" : {
          "estimated_diameter_min" : 0.0059966121,
          "estimated_diameter_max" : 0.0134088323
        },
        "feet" : {
          "estimated_diameter_min" : 31.6621227185,
          "estimated_diameter_max" : 70.7986587106
        }
      },
      "is_potentially_hazardous_asteroid" : false,
      "close_approach_data" : [ {
        "close_approach_date" : "2015-12-15",
        "epoch_date_close_approach" : 1450166400000,
        "relative_velocity" : {
          "kilometers_per_second" : "6.2226184322",
          "kilometers_per_hour" : "22401.4263560795",
          "miles_per_hour" : "13919.3751710873"
        },
        "miss_distance" : {
          "astronomical" : "0.0063211106",
          "lunar" : "2.4589121342",
          "kilometers" : "945624.75",
          "miles" : "587583.9375"
        },
        "orbiting_body" : "Earth"
      } ],
      "orbital_data" : {
        "orbit_id" : "21",
        "orbit_determination_date" : "2017-04-06 08:30:11",
        "orbit_uncertainty" : "5",
        "minimum_orbit_intersection" : ".00656022",
        "jupiter_tisserand_invariant" : "5.233",
        "epoch_osculation" : "2458000.5",
        "eccentricity" : ".2540604699776785",
        "semi_major_axis" : "1.209548851326339",
        "inclination" : "2.955318531028155",
        "ascending_node_longitude" : "75.96084464915424",
        "orbital_period" : "485.8850614953669",
        "perihelion_distance" : ".9022503016974079",
        "perihelion_argument" : "61.30450354539078",
        "aphelion_distance" : "1.51684740095527",
        "perihelion_time" : "2457902.633153661437",
        "mean_anomaly" : "72.51110905416995",
        "mean_motion" : ".7409159666116485",
        "equinox" : "J2000"
      }
    } ]
  }
}